{"type": "FeatureCollection", "features": [ {"type": "Feature", "properties": {"norad_id": 31674, "name": "FENGYUN 1C DEB", "group": "fengyun-1c-debris", "lat": -36.427436389082416, "lon": -148.79123916112502, "alt_km": 708.9018744661471, "timestamp": "2025-12-26T16:33:55.854337+00:00", "meta": {"OBJECT_NAME": "FENGYUN 1C DEB", "OBJECT_ID": "1999-025CCG", "EPOCH": "2025-12-21T19:48:19.306080", "MEAN_MOTION": 14.52041025, "ECCENTRICITY": 0.00251906, "INCLINATION": 98.9259, "RA_OF_ASC_NODE": 32.7017, "ARG_OF_PERICENTER": 257.1305, "MEAN_ANOMALY": 102.7074, "EPHEMERIS_TYPE": 0, "CLASSIFICATION_TYPE": "U", "NORAD_CAT_ID": 31674, "ELEMENT_SET_NO": 999, "REV_AT_EPOCH": 64746, "BSTAR": 0.0020848751, "MEAN_MOTION_DOT": 8.422e-05, "MEAN_MOTION_DDOT": 0}, "tle": {"line1": "1 31674U 99025CCG 25355.82522345  .00008422  00000+0  20849-2 0  9997", "line2": "2 31674  98.9259  32.7017 0025190 257.1305 102.7074 14.52041025647467"}}, "geometry": {"type": "Point", "coordinates": [-148.79123916112502, -36.427436389082416]}}, {"type": "Feature", "properties": {"norad_id": 31678, "name": "FENGYUN 1C DEB", "group": "fengyun-1c-debris", "lat": -54.21965920522705, "lon": -81.83266937883523, "alt_km": 781.5150833244188, "timestamp": "2025-12-26T16:33:55.854346+00:00", "meta": {"OBJECT_NAME": "FENGYUN 1C DEB", "OBJECT_ID": "1999-025CCL", "EPOCH": "2025-12-24T13:54:04.287456", "MEAN_MOTION": 14.5329317, "ECCENTRICITY": 0.02582086, "INCLINATION": 98.7992, "RA_OF_ASC_NODE": 108.3604, "ARG_OF_PERICENTER": 351.9228, "MEAN_ANOMALY": 7.7846, "EPHEMERIS_TYPE": 0, "CLASSIFICATION_TYPE": "U", "NORAD_CAT_ID": 31678, "ELEMENT_SET_NO": 999, "REV_AT_EPOCH": 97011, "BSTAR": 0.00078715608, "MEAN_MOTION_DOT": 5.026e-05, "MEAN_MOTION_DDOT": 0}, "tle": {"line1": "1 31678U 99025CCL 25358.57921629  .00005026  00000+0  78716-3 0  9998", "line2": "2 31678  98.7992 108.3604 0258208 351.9228   7.7846 14.53293170970113"}}, "geometry": {"type": "Point", "coordinates": [-81.83266937883523, -54.21965920522705]}}, {"type": "Feature", "properties": {"norad_id": 31680, "name": "FENGYUN 1C DEB", "group": "fengyun-1c-debris", "lat": 23.235575672320362, "lon": -63.18251674989254, "alt_km": 488.17586445739744, "timestamp": "2025-12-26T16:33:55.854355+00:00", "meta": {"OBJECT_NAME": "FENGYUN 1C DEB", "OBJECT_ID": "1999-025CCN", "EPOCH": "2025-12-24T13:28:55.173216", "MEAN_MOTION": 15.24845989, "ECCENTRICITY": 0.00745036, "INCLINATION": 99.8372, "RA_OF_ASC_NODE": 109.7543, "ARG_OF_PERICENTER": 251.2866, "MEAN_ANOMALY": 108.0268, "EPHEMERIS_TYPE": 0, "CLASSIFICATION_TYPE": "U", "NORAD_CAT_ID": 31680, "ELEMENT_SET_NO": 999, "REV_AT_EPOCH": 352, "BSTAR": 0.0014478473, "MEAN_MOTION_DOT": 0.00038992, "MEAN_MOTION_DDOT": 0}, "tle": {"line1": "1 31680U 99025CCN 25358.56174969  .00038992  00000+0  14478-2 0  9999", "line2": "2 31680  99.8372 109.7543 0074503 251.2866 108.0268 15.24845989  3526"}}, "geometry": {"type": "Point", "coordinates": [-63.18251674989254, 23.235575672320362]}}, {"type": "Feature", "properties": {"norad_id": 31685, "name": "FENGYUN 1C DEB", "group": "fengyun-1c-debris", "lat": -34.44665713078216, "lon": 30.53894304179631, "alt_km": 875.7510621550664, "timestamp": "2025-12-26T16:33:55.854364+00:00", "meta": {"OBJECT_NAME": "FENGYUN 1C DEB", "OBJECT_ID": "1999-025CCT", "EPOCH": "2025-12-23T18:53:17.762496", "MEAN_MOTION": 14.09662143, "ECCENTRICITY": 0.00164005, "INCLINATION": 98.73, "RA_OF_ASC_NODE": 21.674, "ARG_OF_PERICENTER": 193.5583, "MEAN_ANOMALY": 166.5149, "EPHEMERIS_TYPE": 0, "CLASSIFICATION_TYPE": "U", "NORAD_CAT_ID": 31685, "ELEMENT_SET_NO": 999, "REV_AT_EPOCH": 95245, "BSTAR": 0.00013928838, "MEAN_MOTION_DOT": 2.02e-06, "MEAN_MOTION_DDOT": 0}, "tle": {"line1": "1 31685U 99025CCT 25357.78701114  .00000202  00000+0  13929-3 0  9999", "line2": "2 31685  98.7300  21.6740 0016400 193.5583 166.5149 14.09662143952450"}}, "geometry": {"type": "Point", "coordinates": [30.53894304179631, -34.44665713078216]}}, {"type": "Feature", "properties": {"norad_id": 31686, "name": "FENGYUN 1C DEB", "group": "fengyun-1c-debris", "lat": -13.613415789070158, "lon": 74.32090657440392, "alt_km": 551.0713816036496, "timestamp": "2025-12-26T16:33:55.854373+00:00", "meta": {"OBJECT_NAME": "FENGYUN 1C DEB", "OBJECT_ID": "1999-025CCU", "EPOCH": "2025-12-21T22:27:00.303552", "MEAN_MOTION": 14.7223699, "ECCENTRICITY": 0.02829038, "INCLINATION": 98.1511, "RA_OF_ASC_NODE": 67.5581, "ARG_OF_PERICENTER": 60.2602, "MEAN_ANOMALY": 302.6434, "EPHEMERIS_TYPE": 0, "CLASSIFICATION_TYPE": "U", "NORAD_CAT_ID": 31686, "ELEMENT_SET_NO": 999, "REV_AT_EPOCH": 97954, "BSTAR": 0.00063583976, "MEAN_MOTION_DOT": 7.541e-05, "MEAN_MOTION_DDOT": 0}, "tle": {"line1": "1 31686U 99025CCU 25355.93542018  .00007541  00000+0  63584-3 0  9996", "line2": "2 31686  98.1511  67.5581 0282903  60.2602 302.6434 14.72236990979542"}}, "geometry": {"type": "Point", "coordinates": [74.32090657440392, -13.613415789070158]}}, {"type": "Feature", "properties": {"norad_id": 31688, "name": "FENGYUN 1C DEB", "group": "fengyun-1c-debris", "lat": 78.24177115096553, "lon": 5.236903000601828, "alt_km": 827.0339344027243, "timestamp": "2025-12-26T16:33:55.854381+00:00", "meta": {"OBJECT_NAME": "FENGYUN 1C DEB", "OBJECT_ID": "1999-025CCW", "EPOCH": "2025-12-24T23:04:45.182784", "MEAN_MOTION": 14.02316478, "ECCENTRICITY": 0.00755733, "INCLINATION": 98.9619, "RA_OF_ASC_NODE": 52.8355, "ARG_OF_PERICENTER": 107.8977, "MEAN_ANOMALY": 253.0448, "EPHEMERIS_TYPE": 0, "CLASSIFICATION_TYPE": "U", "NORAD_CAT_ID": 31688, "ELEMENT_SET_NO": 999, "REV_AT_EPOCH": 95449, "BSTAR": 9.6673387e-05, "MEAN_MOTION_DOT": 1.09e-06, "MEAN_MOTION_DDOT": 0}, "tle": {"line1": "1 31688U 99025CCW 25358.96163406  .00000109  00000+0  96673-4 0  9993", "line2": "2 31688  98.9619  52.8355 0075573 107.8977 253.0448 14.02316478954497"}}, "geometry": {"type": "Point", "coordinates": [5.236903000601828, 78.24177115096553]}}, {"type": "Feature", "properties": {"norad_id": 31691, "name": "FENGYUN 1C DEB", "group": "fengyun-1c-debris", "lat": 27.161711133415018, "lon": 82.71315540151397, "alt_km": 847.0806447350142, "timestamp": "2025-12-26T16:33:55.854391+00:00", "meta": {"OBJECT_NAME": "FENGYUN 1C DEB", "OBJECT_ID": "1999-025CCZ", "EPOCH": "2025-12-24T12:14:29.737824", "MEAN_MOTION": 14.26259631, "ECCENTRICITY": 0.00619367, "INCLINATION": 98.8802, "RA_OF_ASC_NODE": 85.1044, "ARG_OF_PERICENTER": 205.8688, "MEAN_ANOMALY": 153.9391, "EPHEMERIS_TYPE": 0, "CLASSIFICATION_TYPE": "U", "NORAD_CAT_ID": 31691, "ELEMENT_SET_NO": 999, "REV_AT_EPOCH": 64279, "BSTAR": 0.0023694537, "MEAN_MOTION_DOT": 5.757e-05, "MEAN_MOTION_DDOT": 0}, "tle": {"line1": "1 31691U 99025CCZ 25358.51006641  .00005757  00000+0  23695-2 0  9991", "line2": "2 31691  98.8802  85.1044 0061936 205.8688 153.9391 14.26259631642799"}}, "geometry": {"type": "Point", "coordinates": [82.71315540151397, 27.161711133415018]}}, {"type": "Feature", "properties": {"norad_id": 31692, "name": "FENGYUN 1C DEB", "group": "fengyun-1c-debris", "lat": -76.01815451036666, "lon": 38.132821616248044, "alt_km": 870.6738196381712, "timestamp": "2025-12-26T16:33:55.854400+00:00", "meta": {"OBJECT_NAME": "FENGYUN 1C DEB", "OBJECT_ID": "1999-025CDA", "EPOCH": "2025-12-24T22:37:00.691968", "MEAN_MOTION": 14.18480658, "ECCENTRICITY": 0.00882618, "INCLINATION": 99.1772, "RA_OF_ASC_NODE": 355.84, "ARG_OF_PERICENTER": 47.2008, "MEAN_ANOMALY": 313.6544, "EPHEMERIS_TYPE": 0, "CLASSIFICATION_TYPE": "U", "NORAD_CAT_ID": 31692, "ELEMENT_SET_NO": 999, "REV_AT_EPOCH": 58382, "BSTAR": 0.0029625894, "MEAN_MOTION_DOT": 6.321e-05, "MEAN_MOTION_DDOT": 0}, "tle": {"line1": "1 31692U 99025CDA 25358.94236912  .00006321  00000+0  29626-2 0  9993", "line2": "2 31692  99.1772 355.8400 0088261  47.2008 313.6544 14.18480658583826"}}, "geometry": {"type": "Point", "coordinates": [38.132821616248044, -76.01815451036666]}}, {"type": "Feature", "properties": {"norad_id": 31695, "name": "FENGYUN 1C DEB", "group": "fengyun-1c-debris", "lat": -46.78482176345529, "lon": 94.17626512969727, "alt_km": 730.2423544663416, "timestamp": "2025-12-26T16:33:55.854409+00:00", "meta": {"OBJECT_NAME": "FENGYUN 1C DEB", "OBJECT_ID": "1999-025CDD", "EPOCH": "2025-12-23T23:36:59.258880", "MEAN_MOTION": 14.73939254, "ECCENTRICITY": 0.01749443, "INCLINATION": 98.2639, "RA_OF_ASC_NODE": 82.5186, "ARG_OF_PERICENTER": 192.7541, "MEAN_ANOMALY": 166.9213, "EPHEMERIS_TYPE": 0, "CLASSIFICATION_TYPE": "U", "NORAD_CAT_ID": 31695, "ELEMENT_SET_NO": 999, "REV_AT_EPOCH": 66137, "BSTAR": 0.0016968372, "MEAN_MOTION_DOT": 0.00014207, "MEAN_MOTION_DDOT": 0}, "tle": {"line1": "1 31695U 99025CDD 25357.98401920  .00014207  00000+0  16968-2 0  9999", "line2": "2 31695  98.2639  82.5186 0174944 192.7541 166.9213 14.73939254661379"}}, "geometry": {"type": "Point", "coordinates": [94.17626512969727, -46.78482176345529]}}, {"type": "Feature", "properties": {"norad_id": 31714, "name": "FENGYUN 1C DEB", "group": "fengyun-1c-debris", "lat": 66.30336648804457, "lon": -118.43316784457323, "alt_km": 603.5724980883688, "timestamp": "2025-12-26T16:33:55.854418+00:00", "meta": {"OBJECT_NAME": "FENGYUN 1C DEB", "OBJECT_ID": "1999-025CDM", "EPOCH": "2025-12-25T16:20:59.212896", "MEAN_MOTION": 14.89420088, "ECCENTRICITY": 0.00154335, "INCLINATION": 99.0312, "RA_OF_ASC_NODE": 261.6631, "ARG_OF_PERICENTER": 258.4256, "MEAN_ANOMALY": 162.4914, "EPHEMERIS_TYPE": 0, "CLASSIFICATION_TYPE": "U", "NORAD_CAT_ID": 31714, "ELEMENT_SET_NO": 999, "REV_AT_EPOCH": 96242, "BSTAR": 0.006045114, "MEAN_MOTION_DOT": 0.00057984, "MEAN_MOTION_DDOT": 0}, "tle": {"line1": "1 31714U 99025CDM 25359.68124089  .00057984  00000+0  60451-2 0  9993", "line2": "2 31714  99.0312 261.6631 0015433 258.4256 162.4914 14.89420088962429"}}, "geometry": {"type": "Point", "coordinates": [-118.43316784457323, 66.30336648804457]}}]}